BEIDOU-2 IGSO-1 (C06)   
1 36828U 10036A   23274.81651410 -.00000113  00000+0  00000+0 0  9995
2 36828  54.2344 171.9240 0036721 187.5207  49.4722  1.00245438 48304
BEIDOU-2 G4 (C04)       
1 37210U 10057A   23274.88992594 -.00000121  00000+0  00000+0 0  9991
2 37210   1.2374  62.0952 0007049 160.2161 268.4028  1.00272481 47379
BEIDOU-2 IGSO-2 (C07)   
1 37256U 10068A   23274.91952884 -.00000198  00000+0  00000+0 0  9999
2 37256  49.3595 283.9690 0032284 213.3267 312.5756  1.00274838 46877
BEIDOU-2 IGSO-3 (C08)   
1 37384U 11013A   23274.80795348 -.00000190  00000+0  00000+0 0  9992
2 37384  60.9812  49.6283 0028244 175.8950 183.8374  1.00274476 45734
BEIDOU-2 IGSO-4 (C09)   
1 37763U 11038A   23275.14795935 -.00000095  00000+0  00000+0 0  9994
2 37763  54.5079 174.4661 0112043 227.7584 116.9594  1.00268222 44728
BEIDOU-2 IGSO-5 (C10)   
1 37948U 11073A   23275.49748170 -.00000147  00000+0  00000+0 0  9993
2 37948  49.4841 283.6311 0095078 220.7557 141.1304  1.00265983 43492
BEIDOU-2 G5 (C05)       
1 38091U 12008A   23274.90353470  .00000048  00000+0  00000+0 0  9991
2 38091   1.7749  68.8501 0005286 177.4109 148.0844  1.00269517 42443
BEIDOU-2 M3 (C11)       
1 38250U 12018A   23274.04621216 -.00000093  00000+0  00000+0 0  9991
2 38250  56.4963 337.9890 0024482 256.8251 102.9648  1.86231071 77509
BEIDOU-2 M4 (C12)       
1 38251U 12018B   23274.51449230 -.00000095  00000+0  00000+0 0  9990
2 38251  56.4064 337.2645 0015359 257.1078 102.7832  1.86231779 77864
BEIDOU-2 M6 (C14)       
1 38775U 12050B   23274.22429371  .00000008  00000+0  00000+0 0  9992
2 38775  55.7120  95.8655 0010948 340.2217  19.7811  1.86231180 74874
BEIDOU-2 G6 (C02)       
1 38953U 12059A   23274.90118882 -.00000185  00000+0  00000+0 0  9993
2 38953   1.8954  81.8259 0006809 305.0378  32.0067  1.00271870 39982
BEIDOU-3S IGSO-1S (C31) 
1 40549U 15019A   23274.75652892 -.00000147  00000+0  00000+0 0  9991
2 40549  51.0498 307.2477 0041010 197.2331 229.6818  1.00250641 31158
BEIDOU-3S M2S (C57)     
1 40748U 15037A   23274.71697786 -.00000096  00000+0  00000+0 0  9992
2 40748  55.6458 335.8402 0012253 244.8769 115.0578  1.86233025 55698
BEIDOU-3S M1S (C58)     
1 40749U 15037B   23272.83932283 -.00000085  00000+0  00000+0 0  9996
2 40749  55.6500 335.8901 0004238 295.5555  64.4657  1.86232777 55666
BEIDOU-3S IGSO-2S (C56) 
1 40938U 15053A   23274.94910130 -.00000138  00000+0  00000+0 0  9994
2 40938  50.7679 270.4218 0047853 194.5704 343.6734  1.00276739 29423
BEIDOU-2 IGSO-6 (C13)   
1 41434U 16021A   23275.34812929 -.00000168  00000+0  00000+0 0  9997
2 41434  58.7967  47.9804 0048082 218.5753 326.3894  1.00277251 27554
BEIDOU-2 G7 (C03)       
1 41586U 16037A   23274.88590984 -.00000363  00000+0  00000+0 0  9991
2 41586   1.9360  68.7925 0006883 340.5219  30.5447  1.00271610 26875
BEIDOU-3 M1 (C19)       
1 43001U 17069A   23275.06450096  .00000001  00000+0  00000+0 0  9999
2 43001  55.8642  95.8993 0007193 298.7665  61.2019  1.86231516 40181
BEIDOU-3 M2 (C20)       
1 43002U 17069B   23273.39044282  .00000019  00000+0  00000+0 0  9999
2 43002  55.8620  95.9920 0005551 334.0579  25.9654  1.86231030 40142
BEIDOU-3 M7 (C27)       
1 43107U 18003A   23274.75202792 -.00000098  00000+0  00000+0 0  9995
2 43107  55.1022 336.5435 0002906  74.9817 285.1113  1.86232335 38931
BEIDOU-3 M8 (C28)       
1 43108U 18003B   23274.69035536 -.00000098  00000+0  00000+0 0  9999
2 43108  55.0952 336.5325 0004546 248.1599 111.8528  1.86230831 38939
BEIDOU-3 M4 (C22)       
1 43207U 18018A   23275.13251970  .00000000  00000+0  00000+0 0  9999
2 43207  55.8232  95.9950 0004337  20.1139 339.9438  1.86231452 38320
BEIDOU-3 M3 (C21)       
1 43208U 18018B   23275.19918071  .00000000  00000+0  00000+0 0  9998
2 43208  55.8225  95.9973 0005119 317.5988  42.4018  1.86231405 38320
BEIDOU-3 M9 (C29)       
1 43245U 18029A   23275.42193527 -.00000099  00000+0  00000+0 0  9997
2 43245  54.9949 334.2514 0001843 234.6587 125.3842  1.86232537 37487
BEIDOU-3 M10 (C30)      
1 43246U 18029B   23275.35191959 -.00000098  00000+0  00000+0 0  9996
2 43246  54.9922 334.2828 0002916 344.1992  15.8520  1.86232853 37472
BEIDOU-2 IGSO-7 (C16)   
1 43539U 18057A   23274.65384562 -.00000130  00000+0  00000+0 0  9995
2 43539  55.1184 171.6201 0064056 230.4874 317.2700  1.00275136 19226
BEIDOU-3 M5 (C23)       
1 43581U 18062A   23274.49821954  .00000009  00000+0  00000+0 0  9995
2 43581  54.1721 215.9865 0004427 287.9174  72.0140  1.86231797 35202
BEIDOU-3 M6 (C24)       
1 43582U 18062B   23275.43836115  .00000013  00000+0  00000+0 0  9991
2 43582  54.1715 215.9440 0005431   6.2182 353.7736  1.86229714 35220
BEIDOU-3 M12 (C26)      
1 43602U 18067A   23274.30049707  .00000008  00000+0  00000+0 0  9991
2 43602  54.2595 214.6407 0007308  16.0870 343.9166  1.86231422 34683
BEIDOU-3 M11 (C25)      
1 43603U 18067B   23274.43432612  .00000009  00000+0  00000+0 0  9998
2 43603  54.2566 214.6020 0004307   3.4742 356.5101  1.86231422 34710
BEIDOU-3 M13 (C32)      
1 43622U 18072A   23274.93024225  .00000001  00000+0  00000+0 0  9999
2 43622  55.7923  95.5417 0004016 293.0241  66.9742  1.86231473 34234
BEIDOU-3 M14 (C33)      
1 43623U 18072B   23274.79569858  .00000002  00000+0  00000+0 0  9991
2 43623  55.7942  95.5388 0002407 350.3023   9.7345  1.86231477 34227
BEIDOU-3 M16 (C35)      
1 43647U 18078A   23274.95883076 -.00000097  00000+0  00000+0 0  9997
2 43647  54.8914 334.3880 0005974   3.3931 356.6720  1.86227209 33743
BEIDOU-3 M15 (C34)      
1 43648U 18078B   23274.55175660 -.00000095  00000+0  00000+0 0  9995
2 43648  54.8875 334.4058 0002745  10.1960 349.8715  1.86232182 33743
BEIDOU-3 G1 (C59)       
1 43683U 18085A   23275.51838485 -.00000287  00000+0  00000+0 0  9993
2 43683   1.5758 122.4589 0002241   5.2960 209.8947  1.00268641 18145
BEIDOU-3 M17 (C36)      
1 43706U 18093A   23275.23657538  .00000013  00000+0  00000+0 0  9991
2 43706  54.2544 215.8806 0009546 283.4171  76.4606  1.86231907 33109
BEIDOU-3 M18 (C37)      
1 43707U 18093B   23274.56589975  .00000010  00000+0  00000+0 0  9993
2 43707  54.2554 215.8952 0008057 310.8774  49.0329  1.86229715 33105
BEIDOU-3 IGSO-1 (C38)   
1 44204U 19023A   23274.95201622 -.00000222  00000+0  00000+0 0  9999
2 44204  57.2628  47.9520 0023971 195.4914 229.6400  1.00274009 16449
BEIDOU-2 G8 (C01)       
1 44231U 19027A   23274.87428433 -.00000256  00000+0  00000+0 0  9992
2 44231   2.0254  81.0160 0006870 132.6375 255.9234  1.00275004 16166
BEIDOU-3 IGSO-2 (C39)   
1 44337U 19035A   23274.66586103 -.00000128  00000+0  00000+0 0  9992
2 44337  55.1522 167.5520 0033003 195.9183   5.7931  1.00265974 15740
BEIDOU-3 M24 (C46)      
1 44542U 19061A   23274.63739023  .00000010  00000+0  00000+0 0  9996
2 44542  54.4819 216.1366 0008505 346.1816  13.7752  1.86231487 27367
BEIDOU-3 M23 (C45)      
1 44543U 19061B   23274.77323147  .00000011  00000+0  00000+0 0  9999
2 44543  54.4804 216.1009 0005705 332.0810  30.8737  1.86231722 27368
BEIDOU-3 IGSO-3 (C40)   
1 44709U 19073A   23274.44836083 -.00000174  00000+0  00000+0 0  9999
2 44709  56.4905 291.4655 0035064 190.6983 169.2483  1.00273892 14539
BEIDOU-3 M22 (C44)      
1 44793U 19078A   23275.01976167 -.00000097  00000+0  00000+0 0  9993
2 44793  54.7398 334.3497 0004761  11.3476 348.7240  1.86232143 26239
BEIDOU-3 M21 (C43)      
1 44794U 19078B   23274.61331287 -.00000096  00000+0  00000+0 0  9996
2 44794  54.7138 334.3453 0002822 356.6442   3.4156  1.86232606 26222
BEIDOU-3 M19 (C41)      
1 44864U 19090A   23275.02100906  .00000001  00000+0  00000+0 0  9991
2 44864  55.7271  95.7235 0015185 274.0727 193.0547  1.86231732 25802
BEIDOU-3 M20 (C42)      
1 44865U 19090B   23274.59750484  .00000004  00000+0  00000+0 0  9998
2 44865  55.7285  95.7706 0012923 289.3939 343.5748  1.86231672 25787
BEIDOU-3 G2 (C60)       
1 45344U 20017A   23275.10743775 -.00000150  00000+0  00000+0 0  9998
2 45344   2.0661  17.6352 0003300 179.3814 292.2665  1.00272518 13350
BEIDOU-3 G3 (C61)       
1 45807U 20040A   23275.02341860 -.00000364  00000+0  00000+0 0  9995
2 45807   0.5965 349.7661 0007489 318.1745 181.5301  1.00274820 12167
BEIDOU-3 G4             
1 56564U 23066A   23275.39152417 -.00000123  00000+0  00000+0 0  9999
2 56564   2.7754 288.6935 0006308 221.6950 161.4513  1.00271885  1493
